     2.11           N: GPS NAV DATA                         RINEX VERSION / TYPE
teqc  2016Apr1      IGN                 20240206 22:30:02UTCPGM / RUN BY / DATE
    18                                                      LEAP SECONDS
    2.1420D-08  0.0000D+00 -1.1921D-07  1.1921D-07          ION ALPHA
    1.3926D+05 -1.3107D+05  6.5536D+04 -1.9661D+05          ION BETA
   -4.656612873077D-09-1.509903313490D-14   405504     2300 DELTA-UTC: A0,A1,T,W
                                                            END OF HEADER
 1 24  2  6 14  0  0.0 1.685158349574D-04 1.364242052659D-12 0.000000000000D+00
    5.300000000000D+01 4.087500000000D+01 3.834088276595D-09 2.467894579018D+00
    1.892447471619D-06 1.269073341973D-02 6.705522537231D-07 5.154007091522D+03
    2.232000000000D+05 1.862645149231D-08-2.236734067146D+00-1.378357410431D-07
    9.905609342561D-01 3.829687500000D+02 9.991642925748D-01-7.938544957976D-09
    1.400058318049D-10 1.000000000000D+00 2.300000000000D+03 0.000000000000D+00
    2.800000000000D+00 6.300000000000D+01 5.122274160385D-09 5.300000000000D+01
    2.160180000000D+05 4.000000000000D+00
 4 24  2  6 14  0  0.0 2.849921584129D-04 9.549694368616D-12 0.000000000000D+00
    4.800000000000D+01-5.921875000000D+01 4.285178494885D-09-1.783032533319D+00
   -3.254041075706D-06 2.838842221536D-03 1.028552651405D-05 5.153587413788D+03
    2.232000000000D+05 7.264316082001D-08-1.282812631552D-01-1.862645149231D-08
    9.646617690519D-01 1.842187500000D+02-2.985057632249D+00-7.684962966697D-09
    5.250218692682D-10 1.000000000000D+00 2.300000000000D+03 0.000000000000D+00
    2.000000000000D+00 0.000000000000D+00-4.656612873077D-09 3.040000000000D+02
    2.160180000000D+05 4.000000000000D+00
 7 24  2  6 14  0  0.0-5.548913031816D-05-9.094947017729D-12 0.000000000000D+00
    8.700000000000D+01 1.128125000000D+01 5.165929467412D-09 1.926896056692D+00
    3.278255462646D-07 1.789189362898D-02 6.603077054024D-06 5.153662942886D+03
    2.232000000000D+05-3.166496753693D-07 8.848595658841D-01-3.948807716370D-07
    9.501832278597D-01 2.510625000000D+02-2.153029771383D+00-8.113195089998D-09
    2.539391490134D-10 1.000000000000D+00 2.300000000000D+03 0.000000000000D+00
    2.000000000000D+00 0.000000000000D+00-1.117587089539D-08 8.700000000000D+01
    2.224980000000D+05 4.000000000000D+00
 9 24  2  6 14  0  0.0 8.321553468704D-05 1.261923898710D-11 0.000000000000D+00
    4.400000000000D+01-6.415625000000D+01 4.467328939325D-09-1.075279974367D+00
   -3.399327397346D-06 2.804414601997D-03 1.055933535099D-05 5.153731334686D+03
    2.232000000000D+05 1.862645149231D-09-1.869209562938D-01-2.048909664154D-08
    9.581469193965D-01 1.803750000000D+02 2.018612030631D+00-7.811039646868D-09
    4.628764235181D-10 1.000000000000D+00 2.300000000000D+03 0.000000000000D+00
    2.000000000000D+00 0.000000000000D+00 1.396983861923D-09 4.400000000000D+01
    2.177580000000D+05 4.000000000000D+00
17 24  2  6 14  0  0.0 7.178080268204D-04-1.136868377216D-12 0.000000000000D+00
    1.020000000000D+02 1.214375000000D+02 4.087670267874D-09-1.474519209815D+00
    6.470829248428D-06 1.359688071534D-02 8.458271622658D-06 5.153672042847D+03
    2.232000000000D+05-1.974403858185D-07 3.039674109028D+00 2.756714820862D-07
    9.709297512814D-01 2.273437500000D+02-1.337613264847D+00-7.925687279545D-09
   -7.536028191537D-11 1.000000000000D+00 2.300000000000D+03 0.000000000000D+00
    2.000000000000D+00 0.000000000000D+00-1.117587089539D-08 1.020000000000D+02
    2.160180000000D+05 4.000000000000D+00
31 24  2  6 15 59 44.0-2.276743762195D-04-1.136868377216D-13 0.000000000000D+00
    1.000000000000D+01 7.093750000000D+00 5.084497711749D-09 2.120830844980D+00
    2.756714820862D-07 1.059025619179D-02 6.601214408875D-06 5.153667751312D+03
    2.303840000000D+05-2.328306436539D-07 9.058415883953D-01-8.754432201385D-08
    9.541766123945D-01 2.518437500000D+02 6.574757511212D-01-8.023905984089D-09
    1.364342527843D-10 1.000000000000D+00 2.300000000000D+03 0.000000000000D+00
    2.000000000000D+00 0.000000000000D+00-1.350417733192D-08 1.000000000000D+01
    2.232300000000D+05
 5 24  2  6 15 59 44.0-1.607947051525D-04-1.477928890381D-12 0.000000000000D+00
    1.800000000000D+01-1.165312500000D+02 4.166245126669D-09-1.499165634380D-01
   -6.018206477165D-06 5.662778741680D-03 4.746019840240D-06 5.153561948776D+03
    2.303840000000D+05-7.078051567078D-08-1.257666736033D+00 6.332993507385D-08
    9.695493710401D-01 2.925000000000D+02 1.233528501413D+00-8.128552941855D-09
   -6.107397226840D-11 1.000000000000D+00 2.300000000000D+03 0.000000000000D+00
    2.000000000000D+00 0.000000000000D+00-1.117587089539D-08 1.800000000000D+01
    2.247000000000D+05
 3 24  2  6 15 59 44.0 1.759780570865D-04 2.455635694787D-11 0.000000000000D+00
    6.000000000000D+00-1.496562500000D+02 3.830516699253D-09 2.597140572278D+00
   -7.687136530876D-06 5.074022570625D-03 5.522742867470D-06 5.153787794113D+03
    2.303840000000D+05 5.401670932770D-08-1.207765021861D+00-3.539025783539D-08
    9.825825550217D-01 2.835937500000D+02 1.071131742879D+00-7.786752920943D-09
   -7.178870457341D-11 1.000000000000D+00 2.300000000000D+03 0.000000000000D+00
    2.000000000000D+00 0.000000000000D+00 1.862645149231D-09 6.000000000000D+00
    2.244780000000D+05 4.000000000000D+00
16 24  2  6 15 59 44.0-3.684344701469D-04 8.185452315956D-12 0.000000000000D+00
    1.800000000000D+01 3.153125000000D+01 4.591262481313D-09 5.166586551697D-01
    1.925975084305D-06 1.399481901899D-02 8.743256330490D-06 5.153724405289D+03
    2.303840000000D+05-9.313225746155D-08 2.018608838543D+00 1.359730958939D-07
    9.624757949344D-01 2.125312500000D+02 8.222689786663D-01-8.023905984089D-09
   -6.878858038739D-10 1.000000000000D+00 2.300000000000D+03 0.000000000000D+00
    2.000000000000D+00 0.000000000000D+00-1.024454832077D-08 1.800000000000D+01
    2.273700000000D+05
12 24  2  6 15 59 44.0-4.753530956805D-04-3.751665644813D-12 0.000000000000D+00
    0.000000000000D+00 1.800000000000D+01 4.444470844336D-09 2.270959236030D+00
    7.916241884232D-07 8.956221514381D-03 8.895993232727D-06 5.153710624695D+03
    2.303840000000D+05 6.519258022308D-08 2.000615702497D+00-9.313225746155D-08
    9.629191746830D-01 2.039687500000D+02 1.410340594301D+00-7.716392847306D-09
   -5.914532078287D-10 1.000000000000D+00 2.300000000000D+03 0.000000000000D+00
    2.000000000000D+00 0.000000000000D+00-1.257285475731D-08 0.000000000000D+00
    2.279460000000D+05 4.000000000000D+00
30 24  2  6 15 59 44.0-4.360210150480D-04 4.888534022029D-12 0.000000000000D+00
    4.000000000000D+00 1.428125000000D+01 5.483085535378D-09 2.868972070511D+00
    7.245689630508D-07 6.759072071873D-03 6.424263119698D-06 5.153685281754D+03
    2.303840000000D+05-1.676380634308D-08 8.870621148634D-01-1.080334186554D-07
    9.353183080590D-01 2.450625000000D+02-2.538031086405D+00-8.195341368863D-09
    2.628680923683D-10 1.000000000000D+00 2.300000000000D+03 0.000000000000D+00
    2.000000000000D+00 0.000000000000D+00 3.725290298462D-09 4.000000000000D+00
    2.280180000000D+05 4.000000000000D+00
17 24  2  6 15 59 44.0 7.178029045463D-04-1.136868377216D-12 0.000000000000D+00
    1.300000000000D+01 1.240312500000D+02 4.118385833015D-09-4.266595794441D-01
    6.411224603653D-06 1.359730877448D-02 8.629634976387D-06 5.153672796249D+03
    2.303840000000D+05-1.974403858185D-07 3.039615710801D+00 7.450580596924D-09
    9.709290680986D-01 2.234375000000D+02-1.337627101126D+00-8.087122575402D-09
   -2.142946405177D-12 1.000000000000D+00 2.300000000000D+03 0.000000000000D+00
    2.000000000000D+00 0.000000000000D+00-1.117587089539D-08 1.300000000000D+01
    2.301360000000D+05 4.000000000000D+00
 5 24  2  6 16  0  0.0-1.607947051525D-04-1.477928890381D-12 0.000000000000D+00
    1.290000000000D+02-1.165312500000D+02 4.166245126669D-09-1.475829165180D-01
   -6.018206477165D-06 5.662775482051D-03 4.746019840240D-06 5.153561954498D+03
    2.304000000000D+05-7.078051567078D-08-1.257666875011D+00 6.332993507385D-08
    9.695493607997D-01 2.925000000000D+02 1.233528714999D+00-8.128552941855D-09
   -6.107397226840D-11 1.000000000000D+00 2.300000000000D+03 0.000000000000D+00
    2.800000000000D+00 0.000000000000D+00-1.117587089539D-08 1.290000000000D+02
    2.232300000000D+05
26 24  2  6 16  0  0.0 1.929905265570D-04-3.865352482535D-12 0.000000000000D+00
    8.000000000000D+00 1.843750000000D+01 5.403081981825D-09 1.350082817214D+00
    1.193955540657D-06 8.814168046229D-03 8.109956979752D-06 5.153578180313D+03
    2.304000000000D+05-1.676380634308D-08 1.854859795110D+00 1.359730958939D-07
    9.314840348832D-01 2.095312500000D+02 5.271825016215D-01-8.333918444237D-09
   -6.393123253012D-10 1.000000000000D+00 2.300000000000D+03 0.000000000000D+00
    2.000000000000D+00 0.000000000000D+00 6.984919309616D-09 8.000000000000D+00
    2.232300000000D+05
29 24  2  6 16  0  0.0-6.074630655348D-04 6.821210263297D-13 0.000000000000D+00
    1.400000000000D+01 1.154375000000D+02 3.934092607238D-09-4.563382564115D-01
    5.941838026047D-06 2.578551764600D-03 8.011236786842D-06 5.153655345917D+03
    2.304000000000D+05-2.980232238770D-08 3.054336901826D+00-4.656612873077D-08
    9.733085526308D-01 2.312187500000D+02 2.507041865980D+00-7.788895750593D-09
   -8.607501517099D-11 1.000000000000D+00 2.300000000000D+03 0.000000000000D+00
    2.000000000000D+00 0.000000000000D+00-1.024454832077D-08 1.400000000000D+01
    2.232300000000D+05
